NORAD_CAT_ID,OBJECT_NAME,OBJECT_TYPE,EPOCH,MEAN_MOTION,ECCENTRICITY,INCLINATION,RA_OF_ASC_NODE,ARG_OF_PERICENTER,MEAN_ANOMALY,BSTAR,MEAN_MOTION_DOT,MEAN_MOTION_DDOT,TLE_LINE0,TLE_LINE1,TLE_LINE2,SEMIMAJOR_AXIS,PERIOD,APOGEE,PERIGEE,DECAYED
53267.0,STARLINK-4060,PAYLOAD,2022-07-28 20:00:01,15.89692321,0.0040525,53.2175,22.4204,52.8522,339.5144,-0.0040674,-0.01319982,0.00049568,0 STARLINK-4060,1 53267U 22086AB  22209.83334491 -.01319982  49568-3 -40674-2 0  9994,2 53267  53.2175  22.4204 0040525  52.8522 339.5144 15.89692321  1301,6681.281999999997,90.584,330.223,276.071,0.0
53267.0,STARLINK-4060,PAYLOAD,2022-07-29 06:00:00,15.88629213,0.0036117,53.2177,20.3074,55.1595,202.3174,-0.0046134999999999,-0.01394789,0.00054267,0 STARLINK-4060,1 53267U 22086AB  22210.25001157 -.01394789  54267-3 -46135-2 0  9990,2 53267  53.2177  20.3074 0036117  55.1595 202.3174 15.88629213  1368,6684.262,90.644,330.269,281.986,0.0
53267.0,STARLINK-4060,PAYLOAD,2022-07-29 14:00:01,15.87727099,0.0032406999999999,53.2177,18.6214,54.7943,309.5991,-0.0047111,-0.01345872,0.00050424,0 STARLINK-4060,1 53267U 22086AB  22210.58334491 -.01345872  50424-3 -47111-2 0  9991,2 53267  53.2177  18.6214 0032407  54.7943 309.5991 15.87727099  1417,6686.794,90.696,330.329,286.9890000000001,0.0
53267.0,STARLINK-4060,PAYLOAD,2022-07-29 22:00:00,15.86829648,0.0028738,53.2173,16.9389,55.9432,54.3083,-0.0048301,-0.01306952,0.00047408,0 STARLINK-4060,1 53267U 22086AB  22210.91667824 -.01306952  47408-3 -48301-2 0  9993,2 53267  53.2173  16.9389 0028738  55.9432  54.3083 15.86829648  1470,6689.315,90.747,330.404,291.956,0.0
53267.0,STARLINK-4060,PAYLOAD,2022-07-30 06:00:00,15.85985213,0.0025404,53.2175,15.2547,55.727,159.3106,-0.0053552,-0.01378437,0.00051843,0 STARLINK-4060,1 53267U 22086AB  22211.25001157 -.01378437  51843-3 -53552-2 0  9991,2 53267  53.2175  15.2547 0025404  55.7270 159.3106 15.85985213  1523,6691.689,90.795,330.5540000000001,296.5540000000001,0.0
53267.0,STARLINK-4060,PAYLOAD,2022-07-30 14:00:01,15.85106812,0.0022023,53.2177,13.5753,54.7145,264.0632,-0.0056325,-0.01217127,0.0,0 STARLINK-4060,1 53267U 22086AB  22211.58334491 -.01217127  00000-0 -56325-2 0  9992,2 53267  53.2177  13.5753 0022023  54.7145 264.0632 15.85106812  1303,6694.161,90.846,330.769,301.283,0.0
53267.0,STARLINK-4060,PAYLOAD,2022-07-30 22:00:00,15.84197377,0.0018265999999999,53.2174,11.899,54.994,6.4776,-0.0056399,-0.01163491,0.0,0 STARLINK-4060,1 53267U 22086AB  22211.91667824 -.01163491  00000-0 -56399-2 0  9993,2 53267  53.2174  11.8990 0018266  54.9940   6.4776 15.84197377  1631,6696.723000000001,90.898,330.82,306.355,0.0
53267.0,STARLINK-4060,PAYLOAD,2022-07-31 14:00:01,15.82477394,0.0012171,53.2175,8.549,50.447,213.2131,-0.0065401,-0.01244816,0.0,0 STARLINK-4060,1 53267U 22086AB  22212.58334491 -.01244816  00000-0 -65401-2 0  9993,2 53267  53.2175   8.5490 0012171  50.4470 213.2131 15.82477394  1730,6701.574000000001,90.997,331.596,315.283,0.0
53267.0,STARLINK-4060,PAYLOAD,2022-07-31 22:00:00,15.81578728,0.0008654,53.2171,6.879,46.7805,316.4017,-0.0066324,-0.01209042,0.0,0 STARLINK-4060,1 53267U 22086AB  22212.91667824 -.01209042  00000-0 -66324-2 0  9996,2 53267  53.2171   6.8790 0008654  46.7805 316.4017 15.81578728  1305,6704.113,91.048,331.779,320.176,0.0
53267.0,STARLINK-4060,PAYLOAD,2022-08-01 14:00:01,15.798256,0.0004251,53.2177,3.5419,21.539,177.5063,-0.0072521,-0.01213075,0.0,0 STARLINK-4060,1 53267U 22086AB  22213.58334491 -.01213075  00000-0 -72521-2 0  9998,2 53267  53.2177   3.5419 0004251  21.5390 177.5063 15.79825600  1300,6709.071,91.149,333.788,328.084,0.0
53267.0,STARLINK-4060,PAYLOAD,2022-08-01 22:00:00,15.78947009,0.0003179,53.2172,1.8782,7.7589,287.6335,-0.0075483,-0.01211931,0.0,0 STARLINK-4060,1 53267U 22086AB  22213.91667824 -.01211931  00000-0 -75483-2 0  9993,2 53267  53.2172   1.8782 0003179   7.7589 287.6335 15.78947009  1945,6711.56,91.2,335.559,331.291,0.0
53267.0,STARLINK-4060,PAYLOAD,2022-08-02 14:00:01,15.77185383,0.0003553,53.2173,358.5545,5.4272,119.495,-0.0081257999999999,-0.01205549,0.0,0 STARLINK-4060,1 53267U 22086AB  22214.58334491 -.01205549  00000-0 -81258-2 0  9993,2 53267  53.2173 358.5545 0003553   5.4272 119.4950 15.77185383  2051,6716.557,91.302,340.80800000000005,336.035,0.0
53267.0,STARLINK-4060,PAYLOAD,2022-08-03 06:00:00,15.75420433,0.0004062999999999,53.2174,355.2389,333.7041,336.5247,-0.0086856,-0.01193035,0.0,0 STARLINK-4060,1 53267U 22086AB  22215.25001157 -.01193035  00000-0 -86856-2 0  9993,2 53267  53.2174 355.2389 0004063 333.7041 336.5247 15.75420433  2158,6721.571999999999,91.404,346.168,340.706,0.0
53267.0,STARLINK-4060,PAYLOAD,2022-08-03 14:00:01,15.74544054,0.0005986,53.2177,353.5864,323.5665,77.7255,-0.0089912,-0.01190219,0.0,0 STARLINK-4060,1 53267U 22086AB  22215.58334491 -.01190219  00000-0 -89912-2 0  9996,2 53267  53.2177 353.5864 0005986 323.5665  77.7255 15.74544054  1308,6724.066,91.455,349.956,341.906,0.0
53267.0,STARLINK-4060,PAYLOAD,2022-08-03 22:00:01,15.73557383,5.45e-05,53.2172,351.9351,305.3712,186.0087,-0.0035305,-0.00476245,0.0,0 STARLINK-4060,1 53267U 22086AB  22215.91668981 -.00476245  00000-0 -35305-2 0  9999,2 53267  53.2172 351.9351 0000545 305.3712 186.0087 15.73557383  2264,6726.876,91.512,349.108,348.375,0.0
53267.0,STARLINK-4060,PAYLOAD,2022-08-04 06:00:00,15.73203399,9.1e-05,53.2172,350.2833,342.3501,238.1105,1.2029e-05,1.069e-05,0.0,0 STARLINK-4060,1 53267U 22086AB  22216.25001157  .00001069  00000-0  12029-4 0  9999,2 53267  53.2172 350.2833 0000910 342.3501 238.1105 15.73203399  2315,6727.885,91.533,350.36300000000006,349.13800000000015,0.0
53267.0,STARLINK-4060,PAYLOAD,2022-08-04 14:00:01,15.73203466,0.0001014,53.2173,348.6353,347.4671,321.9266,1.2632e-05,1.154e-05,0.0,0 STARLINK-4060,1 53267U 22086AB  22216.58334491  .00001154  00000-0  12632-4 0  9990,2 53267  53.2173 348.6353 0001014 347.4671 321.9266 15.73203466  1306,6727.885,91.533,350.432,349.0680000000001,0.0
53267.0,STARLINK-4060,PAYLOAD,2022-08-04 20:00:01,15.73219821,0.0001418,53.2197,347.402,315.3286,330.8142,0.0002528999999999,0.00035051,0.0,0 STARLINK-4060,1 53267U 22086AB  22216.83334491  .00035051  00000-0  25290-3 0  9994,2 53267  53.2197 347.4020 0001418 315.3286 330.8142 15.73219821  2400,6727.839,91.532,350.658,348.75,0.0
53267.0,STARLINK-4060,PAYLOAD,2022-08-04 22:00:00,15.73263181,0.0001409999999999,53.2195,346.9892,317.4822,80.8902,-0.00041905,-0.00059178,0.0,0 STARLINK-4060,1 53267U 22086AB  22216.91667824 -.00059178  00000-0 -41905-3 0  9991,2 53267  53.2195 346.9892 0001410 317.4822  80.8902 15.73263181  1302,6727.715,91.53,350.529,348.631,0.0
53267.0,STARLINK-4060,PAYLOAD,2022-08-05 04:00:00,15.73186381,0.0001155,53.2199,345.7504,315.4101,59.7135,0.00017791,0.00024406,0.0,0 STARLINK-4060,1 53267U 22086AB  22217.16667824  .00024406  00000-0  17791-3 0  9999,2 53267  53.2199 345.7504 0001155 315.4101  59.7135 15.73186381  2464,6727.934,91.534,350.576,349.022,0.0
53267.0,STARLINK-4060,PAYLOAD,2022-08-05 14:00:01,15.73244908,0.0001203,53.2197,343.6899,333.0935,243.2484,-0.00065299,-0.00091446,0.0,0 STARLINK-4060,1 53267U 22086AB  22217.58335648 -.00091446  00000-0 -65299-3 0  9997,2 53267  53.2197 343.6899 0001203 333.0935 243.2484 15.73244908  1300,6727.767,91.531,350.441,348.8230000000001,0.0
53267.0,STARLINK-4060,PAYLOAD,2022-08-05 22:00:00,15.73190713,0.0001327,53.2191,342.0405,339.1376,326.1054,0.00014045,0.00019128,0.0,0 STARLINK-4060,1 53267U 22086AB  22217.91667824  .00019128  00000-0  14045-3 0  9996,2 53267  53.2191 342.0405 0001327 339.1376 326.1054 15.73190713  1301,6727.922,91.534,350.67900000000014,348.894,0.0
53267.0,STARLINK-4060,PAYLOAD,2022-08-06 06:00:00,15.73187081,0.0001081,53.2192,340.3893,338.0278,56.1463,0.00053383,0.00074928,0.0,0 STARLINK-4060,1 53267U 22086AB  22218.25001157  .00074928  00000-0  53383-3 0  9992,2 53267  53.2192 340.3893 0001081 338.0278  56.1463 15.73187081  2635,6727.932,91.534,350.524,349.07,0.0
53267.0,STARLINK-4060,PAYLOAD,2022-08-06 14:00:01,15.73245897,0.0001288,53.2193,338.7416,348.0384,135.0764,-0.00067527,-0.00094516,0.0,0 STARLINK-4060,1 53267U 22086AB  22218.58334491 -.00094516  00000-0 -67527-3 0  9990,2 53267  53.2193 338.7416 0001288 348.0384 135.0764 15.73245897  2682,6727.764,91.531,350.496,348.76300000000015,0.0
53267.0,STARLINK-4060,PAYLOAD,2022-08-06 22:00:00,15.73206247,0.0001385999999999,53.2194,337.0922,354.0657,217.9836,-2.3109e-05,-3.863e-05,0.0,0 STARLINK-4060,1 53267U 22086AB  22218.91667824 -.00003863  00000-0 -23109-4 0  9990,2 53267  53.2194 337.0922 0001386 354.0657 217.9836 15.73206247  1300,6727.877,91.533,350.675,348.81,0.0
53267.0,STARLINK-4060,PAYLOAD,2022-08-07 04:43:33,15.73228435,0.0001294,53.2199,335.7037,350.3408,9.7587,0.00018447,0.00025379,0.0,0 STARLINK-4060,1 53267U 22086AB  22219.19691436  .00025379  00000-0  18447-3 0  9999,2 53267  53.2199 335.7037 0001294 350.3408   9.7587 15.73228435  2773,6727.814,91.532,350.55,348.809,0.0
53267.0,STARLINK-4060,PAYLOAD,2022-08-07 12:20:57,15.73237573,0.0001436,53.2197,334.13199999999995,359.3118,0.79,0.00025688,0.00035642,0.0,0 STARLINK-4060,1 53267U 22086AB  22219.51455212  .00035642  00000-0  25688-3 0  9994,2 53267  53.2197 334.1320 0001436 359.3118   0.7900 15.73237573  3015,6727.788000000001,91.531,350.619,348.68699999999984,0.0
53267.0,STARLINK-4060,PAYLOAD,2022-08-07 21:29:50,15.73231209,0.0001433,53.2197,332.246,4.8811,355.2223,0.00022407,0.00030984,0.0,0 STARLINK-4060,1 53267U 22086AB  22219.89572109  .00030984  00000-0  22407-3 0  9990,2 53267  53.2197 332.2460 0001433   4.8811 355.2223 15.73231209  3070,6727.806,91.531,350.635,348.707,0.0
53267.0,STARLINK-4060,PAYLOAD,2022-08-07 22:00:00,15.73230644,0.0001619,53.2193,332.1434,6.9526,111.8975,0.00010433,0.00014065,0.0,0 STARLINK-4060,1 53267U 22086AB  22219.91667824  .00014065  00000-0  10433-3 0  9990,2 53267  53.2193 332.1434 0001619   6.9526 111.8975 15.73230644  2899,6727.808000000001,91.531,350.76199999999994,348.584,0.0
